IRIDIUM 150             
1 43257U 18030J   25154.51439189 -.00000020  00000+0 -14064-4 0  9992
2 43257  86.3959  88.7814 0002412  80.6834 279.4635 14.34217450375885
IRIDIUM 143             
1 43258U 18030K   25154.56513199  .00000462  00000+0  15779-3 0  9993
2 43258  86.3960  88.8381 0002645  77.2215 282.9276 14.34218846375825
IRIDIUM 161             
1 43478U 18047C   25154.34536652  .00000525  00000+0  15016-3 0  9994
2 43478  86.4497 246.7215 0002225 100.0435 260.1016 14.43276613370493
IRIDIUM 152             
1 43479U 18047D   25154.95646018  .00000267  00000+0  88295-4 0  9993
2 43479  86.3973 246.3266 0002329  98.5097 261.6362 14.34218963368282
IRIDIUM 147             
1 43480U 18047E   25155.17210645  .00000084  00000+0  22992-4 0  9992
2 43480  86.3974 246.2351 0002119  95.0954 265.0484 14.34216735368301
IRIDIUM 110             
1 43481U 18047F   25154.55053420  .00000288  00000+0  95940-4 0  9999
2 43481  86.3964 246.5752 0001662  98.9951 261.1433 14.34220593368207
IRIDIUM 162             
1 43482U 18047G   25154.61639362  .00000572  00000+0  16416-3 0  9998
2 43482  86.4497 246.5037 0002372 103.2891 256.8575 14.43277225370528
IRIDIUM 160             
1 43569U 18061A   25154.70567702  .00000047  00000+0  97286-5 0  9991
2 43569  86.3999 214.9083 0002213  99.2073 260.9373 14.34217678359121
